ORBCOMM-X [-]           
1 21576U 91050C   23267.13773585  .00000537  00000+0  17644-3 0  9994
2 21576  98.4261 333.2470 0002588 304.0145  56.0799 14.42178955690989
ORBCOMM FM01 [-]        
1 23545U 95017A   23267.29579818  .00005787  00000+0  83926-3 0  9997
2 23545  69.9689 191.2240 0006766 222.0450 138.0179 14.76510092518858
ORBCOMM FM02 [-]        
1 23546U 95017B   23267.25912558  .00008478  00000+0  12392-2 0  9994
2 23546  69.9702 210.3131 0008056 210.9539 149.1135 14.75975161518503
ORBCOMM FM08 [-]        
1 25112U 97084A   23267.67993166  .00002302  00000+0  74929-3 0  9996
2 25112  45.0142 147.5921 0007724 307.3253  52.6892 14.41256878350300
ORBCOMM FM10 [-]        
1 25113U 97084B   23267.53709200  .00002032  00000+0  66746-3 0  9994
2 25113  45.0153 149.9806 0005034 280.5807  79.4476 14.41202836525269
ORBCOMM FM11 [+]        
1 25114U 97084C   23267.53761848  .00002043  00000+0  67239-3 0  9991
2 25114  45.0137 149.8736 0005777 280.1720  79.8478 14.41085691350234
ORBCOMM FM12 [-]        
1 25115U 97084D   23267.70165452  .00002026  00000+0  66745-3 0  9992
2 25115  45.0147 148.7311 0004853 283.6371  76.3938 14.41080642350297
ORBCOMM FM09 [-]        
1 25116U 97084E   23267.50025961  .00002044  00000+0  67293-3 0  9990
2 25116  45.0149 150.3199 0005754 264.5075  95.5118 14.41060664350232
