<?xml version="1.0" encoding="UTF-8"?>
<ndm xmlns:xsi="http://www.w3.org/2001/XMLSchema-instance" xsi:noNamespaceSchemaLocation="https://sanaregistry.org/r/ndmxml_unqualified/ndmxml-2.0.0-master-2.0.xsd">
<omm id="CCSDS_OMM_VERS" version="2.0">
<header><CREATION_DATE/><ORIGINATOR/></header><body><segment><metadata><OBJECT_NAME>ORBCOMM-X [-]</OBJECT_NAME><OBJECT_ID>1991-050C</OBJECT_ID><CENTER_NAME>EARTH</CENTER_NAME><REF_FRAME>TEME</REF_FRAME><TIME_SYSTEM>UTC</TIME_SYSTEM><MEAN_ELEMENT_THEORY>SGP4</MEAN_ELEMENT_THEORY></metadata><data><meanElements><EPOCH>2023-09-24T03:18:20.377440</EPOCH><MEAN_MOTION>14.42178955</MEAN_MOTION><ECCENTRICITY>.0002588</ECCENTRICITY><INCLINATION>98.4261</INCLINATION><RA_OF_ASC_NODE>333.2470</RA_OF_ASC_NODE><ARG_OF_PERICENTER>304.0145</ARG_OF_PERICENTER><MEAN_ANOMALY>56.0799</MEAN_ANOMALY></meanElements><tleParameters><EPHEMERIS_TYPE>0</EPHEMERIS_TYPE><CLASSIFICATION_TYPE>U</CLASSIFICATION_TYPE><NORAD_CAT_ID>21576</NORAD_CAT_ID><ELEMENT_SET_NO>999</ELEMENT_SET_NO><REV_AT_EPOCH>69098</REV_AT_EPOCH><BSTAR>.17644E-3</BSTAR><MEAN_MOTION_DOT>.537E-5</MEAN_MOTION_DOT><MEAN_MOTION_DDOT>0</MEAN_MOTION_DDOT></tleParameters></data></segment></body></omm>
<omm id="CCSDS_OMM_VERS" version="2.0">
<header><CREATION_DATE/><ORIGINATOR/></header><body><segment><metadata><OBJECT_NAME>ORBCOMM FM01 [-]</OBJECT_NAME><OBJECT_ID>1995-017A</OBJECT_ID><CENTER_NAME>EARTH</CENTER_NAME><REF_FRAME>TEME</REF_FRAME><TIME_SYSTEM>UTC</TIME_SYSTEM><MEAN_ELEMENT_THEORY>SGP4</MEAN_ELEMENT_THEORY></metadata><data><meanElements><EPOCH>2023-09-24T07:05:56.962752</EPOCH><MEAN_MOTION>14.76510092</MEAN_MOTION><ECCENTRICITY>.0006766</ECCENTRICITY><INCLINATION>69.9689</INCLINATION><RA_OF_ASC_NODE>191.2240</RA_OF_ASC_NODE><ARG_OF_PERICENTER>222.0450</ARG_OF_PERICENTER><MEAN_ANOMALY>138.0179</MEAN_ANOMALY></meanElements><tleParameters><EPHEMERIS_TYPE>0</EPHEMERIS_TYPE><CLASSIFICATION_TYPE>U</CLASSIFICATION_TYPE><NORAD_CAT_ID>23545</NORAD_CAT_ID><ELEMENT_SET_NO>999</ELEMENT_SET_NO><REV_AT_EPOCH>51885</REV_AT_EPOCH><BSTAR>.83926E-3</BSTAR><MEAN_MOTION_DOT>.5787E-4</MEAN_MOTION_DOT><MEAN_MOTION_DDOT>0</MEAN_MOTION_DDOT></tleParameters></data></segment></body></omm>
<omm id="CCSDS_OMM_VERS" version="2.0">
<header><CREATION_DATE/><ORIGINATOR/></header><body><segment><metadata><OBJECT_NAME>ORBCOMM FM02 [-]</OBJECT_NAME><OBJECT_ID>1995-017B</OBJECT_ID><CENTER_NAME>EARTH</CENTER_NAME><REF_FRAME>TEME</REF_FRAME><TIME_SYSTEM>UTC</TIME_SYSTEM><MEAN_ELEMENT_THEORY>SGP4</MEAN_ELEMENT_THEORY></metadata><data><meanElements><EPOCH>2023-09-24T06:13:08.450112</EPOCH><MEAN_MOTION>14.75975161</MEAN_MOTION><ECCENTRICITY>.0008056</ECCENTRICITY><INCLINATION>69.9702</INCLINATION><RA_OF_ASC_NODE>210.3131</RA_OF_ASC_NODE><ARG_OF_PERICENTER>210.9539</ARG_OF_PERICENTER><MEAN_ANOMALY>149.1135</MEAN_ANOMALY></meanElements><tleParameters><EPHEMERIS_TYPE>0</EPHEMERIS_TYPE><CLASSIFICATION_TYPE>U</CLASSIFICATION_TYPE><NORAD_CAT_ID>23546</NORAD_CAT_ID><ELEMENT_SET_NO>999</ELEMENT_SET_NO><REV_AT_EPOCH>51850</REV_AT_EPOCH><BSTAR>.12392E-2</BSTAR><MEAN_MOTION_DOT>.8478E-4</MEAN_MOTION_DOT><MEAN_MOTION_DDOT>0</MEAN_MOTION_DDOT></tleParameters></data></segment></body></omm>
<omm id="CCSDS_OMM_VERS" version="2.0">
<header><CREATION_DATE/><ORIGINATOR/></header><body><segment><metadata><OBJECT_NAME>ORBCOMM FM08 [-]</OBJECT_NAME><OBJECT_ID>1997-084A</OBJECT_ID><CENTER_NAME>EARTH</CENTER_NAME><REF_FRAME>TEME</REF_FRAME><TIME_SYSTEM>UTC</TIME_SYSTEM><MEAN_ELEMENT_THEORY>SGP4</MEAN_ELEMENT_THEORY></metadata><data><meanElements><EPOCH>2023-09-24T16:19:06.095424</EPOCH><MEAN_MOTION>14.41256878</MEAN_MOTION><ECCENTRICITY>.0007724</ECCENTRICITY><INCLINATION>45.0142</INCLINATION><RA_OF_ASC_NODE>147.5921</RA_OF_ASC_NODE><ARG_OF_PERICENTER>307.3253</ARG_OF_PERICENTER><MEAN_ANOMALY>52.6892</MEAN_ANOMALY></meanElements><tleParameters><EPHEMERIS_TYPE>0</EPHEMERIS_TYPE><CLASSIFICATION_TYPE>U</CLASSIFICATION_TYPE><NORAD_CAT_ID>25112</NORAD_CAT_ID><ELEMENT_SET_NO>999</ELEMENT_SET_NO><REV_AT_EPOCH>35030</REV_AT_EPOCH><BSTAR>.74929E-3</BSTAR><MEAN_MOTION_DOT>.2302E-4</MEAN_MOTION_DOT><MEAN_MOTION_DDOT>0</MEAN_MOTION_DDOT></tleParameters></data></segment></body></omm>
<omm id="CCSDS_OMM_VERS" version="2.0">
<header><CREATION_DATE/><ORIGINATOR/></header><body><segment><metadata><OBJECT_NAME>ORBCOMM FM10 [-]</OBJECT_NAME><OBJECT_ID>1997-084B</OBJECT_ID><CENTER_NAME>EARTH</CENTER_NAME><REF_FRAME>TEME</REF_FRAME><TIME_SYSTEM>UTC</TIME_SYSTEM><MEAN_ELEMENT_THEORY>SGP4</MEAN_ELEMENT_THEORY></metadata><data><meanElements><EPOCH>2023-09-24T12:53:24.748800</EPOCH><MEAN_MOTION>14.41202836</MEAN_MOTION><ECCENTRICITY>.0005034</ECCENTRICITY><INCLINATION>45.0153</INCLINATION><RA_OF_ASC_NODE>149.9806</RA_OF_ASC_NODE><ARG_OF_PERICENTER>280.5807</ARG_OF_PERICENTER><MEAN_ANOMALY>79.4476</MEAN_ANOMALY></meanElements><tleParameters><EPHEMERIS_TYPE>0</EPHEMERIS_TYPE><CLASSIFICATION_TYPE>U</CLASSIFICATION_TYPE><NORAD_CAT_ID>25113</NORAD_CAT_ID><ELEMENT_SET_NO>999</ELEMENT_SET_NO><REV_AT_EPOCH>52526</REV_AT_EPOCH><BSTAR>.66746E-3</BSTAR><MEAN_MOTION_DOT>.2032E-4</MEAN_MOTION_DOT><MEAN_MOTION_DDOT>0</MEAN_MOTION_DDOT></tleParameters></data></segment></body></omm>
<omm id="CCSDS_OMM_VERS" version="2.0">
<header><CREATION_DATE/><ORIGINATOR/></header><body><segment><metadata><OBJECT_NAME>ORBCOMM FM11 [+]</OBJECT_NAME><OBJECT_ID>1997-084C</OBJECT_ID><CENTER_NAME>EARTH</CENTER_NAME><REF_FRAME>TEME</REF_FRAME><TIME_SYSTEM>UTC</TIME_SYSTEM><MEAN_ELEMENT_THEORY>SGP4</MEAN_ELEMENT_THEORY></metadata><data><meanElements><EPOCH>2023-09-24T12:54:10.236672</EPOCH><MEAN_MOTION>14.41085691</MEAN_MOTION><ECCENTRICITY>.0005777</ECCENTRICITY><INCLINATION>45.0137</INCLINATION><RA_OF_ASC_NODE>149.8736</RA_OF_ASC_NODE><ARG_OF_PERICENTER>280.1720</ARG_OF_PERICENTER><MEAN_ANOMALY>79.8478</MEAN_ANOMALY></meanElements><tleParameters><EPHEMERIS_TYPE>0</EPHEMERIS_TYPE><CLASSIFICATION_TYPE>U</CLASSIFICATION_TYPE><NORAD_CAT_ID>25114</NORAD_CAT_ID><ELEMENT_SET_NO>999</ELEMENT_SET_NO><REV_AT_EPOCH>35023</REV_AT_EPOCH><BSTAR>.67239E-3</BSTAR><MEAN_MOTION_DOT>.2043E-4</MEAN_MOTION_DOT><MEAN_MOTION_DDOT>0</MEAN_MOTION_DDOT></tleParameters></data></segment></body></omm>
<omm id="CCSDS_OMM_VERS" version="2.0">
<header><CREATION_DATE/><ORIGINATOR/></header><body><segment><metadata><OBJECT_NAME>ORBCOMM FM12 [-]</OBJECT_NAME><OBJECT_ID>1997-084D</OBJECT_ID><CENTER_NAME>EARTH</CENTER_NAME><REF_FRAME>TEME</REF_FRAME><TIME_SYSTEM>UTC</TIME_SYSTEM><MEAN_ELEMENT_THEORY>SGP4</MEAN_ELEMENT_THEORY></metadata><data><meanElements><EPOCH>2023-09-24T16:50:22.950528</EPOCH><MEAN_MOTION>14.41080642</MEAN_MOTION><ECCENTRICITY>.0004853</ECCENTRICITY><INCLINATION>45.0147</INCLINATION><RA_OF_ASC_NODE>148.7311</RA_OF_ASC_NODE><ARG_OF_PERICENTER>283.6371</ARG_OF_PERICENTER><MEAN_ANOMALY>76.3938</MEAN_ANOMALY></meanElements><tleParameters><EPHEMERIS_TYPE>0</EPHEMERIS_TYPE><CLASSIFICATION_TYPE>U</CLASSIFICATION_TYPE><NORAD_CAT_ID>25115</NORAD_CAT_ID><ELEMENT_SET_NO>999</ELEMENT_SET_NO><REV_AT_EPOCH>35029</REV_AT_EPOCH><BSTAR>.66745E-3</BSTAR><MEAN_MOTION_DOT>.2026E-4</MEAN_MOTION_DOT><MEAN_MOTION_DDOT>0</MEAN_MOTION_DDOT></tleParameters></data></segment></body></omm>
<omm id="CCSDS_OMM_VERS" version="2.0">
<header><CREATION_DATE/><ORIGINATOR/></header><body><segment><metadata><OBJECT_NAME>ORBCOMM FM09 [-]</OBJECT_NAME><OBJECT_ID>1997-084E</OBJECT_ID><CENTER_NAME>EARTH</CENTER_NAME><REF_FRAME>TEME</REF_FRAME><TIME_SYSTEM>UTC</TIME_SYSTEM><MEAN_ELEMENT_THEORY>SGP4</MEAN_ELEMENT_THEORY></metadata><data><meanElements><EPOCH>2023-09-24T12:00:22.430304</EPOCH><MEAN_MOTION>14.41060664</MEAN_MOTION><ECCENTRICITY>.0005754</ECCENTRICITY><INCLINATION>45.0149</INCLINATION><RA_OF_ASC_NODE>150.3199</RA_OF_ASC_NODE><ARG_OF_PERICENTER>264.5075</ARG_OF_PERICENTER><MEAN_ANOMALY>95.5118</MEAN_ANOMALY></meanElements><tleParameters><EPHEMERIS_TYPE>0</EPHEMERIS_TYPE><CLASSIFICATION_TYPE>U</CLASSIFICATION_TYPE><NORAD_CAT_ID>25116</NORAD_CAT_ID><ELEMENT_SET_NO>999</ELEMENT_SET_NO><REV_AT_EPOCH>35023</REV_AT_EPOCH><BSTAR>.67293E-3</BSTAR><MEAN_MOTION_DOT>.2044E-4</MEAN_MOTION_DOT><MEAN_MOTION_DDOT>0</MEAN_MOTION_DDOT></tleParameters></data></segment></body></omm>

</ndm>
